[{"OBJECT_NAME":"STARLINK-30383","OBJECT_ID":"2023-134C","EPOCH":"2026-03-09T22:00:01.999584","MEAN_MOTION":15.17137173,"ECCENTRICITY":0.00015199,"INCLINATION":42.9997,"RA_OF_ASC_NODE":195.8091,"ARG_OF_PERICENTER":263.9517,"MEAN_ANOMALY":359.4229,"EPHEMERIS_TYPE":0,"CLASSIFICATION_TYPE":"U","NORAD_CAT_ID":57773,"ELEMENT_SET_NO":999,"REV_AT_EPOCH":572,"BSTAR":0.0041556855,"MEAN_MOTION_DOT":0.00084725,"MEAN_MOTION_DDOT":0},{"OBJECT_NAME":"OBJECT C","OBJECT_ID":"2017-042C","EPOCH":"2026-03-09T10:17:10.798080","MEAN_MOTION":15.23148717,"ECCENTRICITY":0.00098979,"INCLINATION":97.4062,"RA_OF_ASC_NODE":245.0163,"ARG_OF_PERICENTER":70.2407,"MEAN_ANOMALY":289.9897,"EPHEMERIS_TYPE":0,"CLASSIFICATION_TYPE":"U","NORAD_CAT_ID":42827,"ELEMENT_SET_NO":999,"REV_AT_EPOCH":47263,"BSTAR":0.00073854586,"MEAN_MOTION_DOT":0.00017421,"MEAN_MOTION_DDOT":0}]
